STARLINK-31422          
1 59354U 24060G   26068.52856907  .00000220  00000+0  17517-4 0  9990
2 59354  43.0044 261.1618 0001656 266.9669  93.0993 15.27570701110033
FLOCK 4G-36             
1 62675U 25009BU  26068.70726311  .00013573  00000+0  51122-3 0  9993
2 62675  97.4053 151.0513 0003474 324.2456  35.8550 15.27209548 63701
